[
    {
        "Altitude(m)": 559829.8546748331,
        "Argument of Periapsis(deg)": 0.019868973332140504,
        "Eccentricity": 0.0,
        "Inclination(deg)": 53.0,
        "Latitude(deg)": 52.84373818719301,
        "Longitude(deg)": 9.076647311724953,
        "Mean Anomaly(deg)": 84.82027860273277,
        "RAAN(deg)": 29.97043010558405,
        "Satellite Name": "Starlink Shell 1 135",
        "Satellite Number": 135,
        "Semi-Major Axis(m)": 6931778.249405717,
        "Time(s)": 570
    },
    {
        "Altitude(m)": 559845.8232358389,
        "Argument of Periapsis(deg)": 0.02021755181165174,
        "Eccentricity": 0.0,
        "Inclination(deg)": 53.0,
        "Latitude(deg)": 52.91366756708293,
        "Longitude(deg)": 10.064688345174687,
        "Mean Anomaly(deg)": 85.44710980628946,
        "RAAN(deg)": 29.96991133550658,
        "Satellite Name": "Starlink Shell 1 135",
        "Satellite Number": 135,
        "Semi-Major Axis(m)": 6931778.249405717,
        "Time(s)": 580
    },
    {
        "Altitude(m)": 559859.7551614308,
        "Argument of Periapsis(deg)": 0.020566130291162974,
        "Eccentricity": 0.0,
        "Inclination(deg)": 53.0,
        "Latitude(deg)": 52.974655617096175,
        "Longitude(deg)": 11.055835495615883,
        "Mean Anomaly(deg)": 86.0739410098462,
        "RAAN(deg)": 29.9693925654291,
        "Satellite Name": "Starlink Shell 1 135",
        "Satellite Number": 135,
        "Semi-Major Axis(m)": 6931778.249405717,
        "Time(s)": 590
    },
    {
        "Altitude(m)": 559871.6421255708,
        "Argument of Periapsis(deg)": 0.020914708770674213,
        "Eccentricity": 0.0,
        "Inclination(deg)": 53.0,
        "Latitude(deg)": 53.02665766048725,
        "Longitude(deg)": 12.049676794851367,
        "Mean Anomaly(deg)": 86.70077221340287,
        "RAAN(deg)": 29.968873795351627,
        "Satellite Name": "Starlink Shell 1 135",
        "Satellite Number": 135,
        "Semi-Major Axis(m)": 6931778.249405717,
        "Time(s)": 600
    },
    {
        "Altitude(m)": 559881.4770313861,
        "Argument of Periapsis(deg)": 0.021263287250185448,
        "Eccentricity": 0.0,
        "Inclination(deg)": 53.0,
        "Latitude(deg)": 53.069635371865196,
        "Longitude(deg)": 13.045792379787176,
        "Mean Anomaly(deg)": 87.32760341695962,
        "RAAN(deg)": 29.968355025274157,
        "Satellite Name": "Starlink Shell 1 135",
        "Satellite Number": 135,
        "Semi-Major Axis(m)": 6931778.249405717,
        "Time(s)": 610
    },
    {
        "Altitude(m)": 559889.2540146488,
        "Argument of Periapsis(deg)": 0.021611865729696686,
        "Eccentricity": 0.0,
        "Inclination(deg)": 53.0,
        "Latitude(deg)": 53.10355691494557,
        "Longitude(deg)": 14.043756170460657,
        "Mean Anomaly(deg)": 87.95443462051635,
        "RAAN(deg)": 29.967836255196683,
        "Satellite Name": "Starlink Shell 1 135",
        "Satellite Number": 135,
        "Semi-Major Axis(m)": 6931778.249405717,
        "Time(s)": 620
    },
    {
        "Altitude(m)": 559894.9684466108,
        "Argument of Periapsis(deg)": 0.02196044420920792,
        "Eccentricity": 0.0,
        "Inclination(deg)": 53.0,
        "Latitude(deg)": 53.12839705797153,
        "Longitude(deg)": 15.043135915480889,
        "Mean Anomaly(deg)": 88.58126582407304,
        "RAAN(deg)": 29.96731748511921,
        "Satellite Name": "Starlink Shell 1 135",
        "Satellite Number": 135,
        "Semi-Major Axis(m)": 6931778.249405717,
        "Time(s)": 630
    },
    {
        "Altitude(m)": 559898.6169362515,
        "Argument of Periapsis(deg)": 0.02230902268871916,
        "Eccentricity": 0.0,
        "Inclination(deg)": 53.0,
        "Latitude(deg)": 53.14413726583819,
        "Longitude(deg)": 16.04349579891843,
        "Mean Anomaly(deg)": 89.20809702762976,
        "RAAN(deg)": 29.96679871504174,
        "Satellite Name": "Starlink Shell 1 135",
        "Satellite Number": 135,
        "Semi-Major Axis(m)": 6931778.249405717,
        "Time(s)": 640
    },
    {
        "Altitude(m)": 559900.1973319456,
        "Argument of Periapsis(deg)": 0.022657601168230398,
        "Eccentricity": 0.0,
        "Inclination(deg)": 53.0,
        "Latitude(deg)": 53.15076576812546,
        "Longitude(deg)": 17.044396556798375,
        "Mean Anomaly(deg)": 89.83492823118648,
        "RAAN(deg)": 29.966279944964267,
        "Satellite Name": "Starlink Shell 1 135",
        "Satellite Number": 135,
        "Semi-Major Axis(m)": 6931778.249405717,
        "Time(s)": 650
    },
    {
        "Altitude(m)": 559899.7087224866,
        "Argument of Periapsis(deg)": 0.023006179647741636,
        "Eccentricity": 0.0,
        "Inclination(deg)": 53.0,
        "Latitude(deg)": 53.14827760246387,
        "Longitude(deg)": 18.045397296274245,
        "Mean Anomaly(deg)": 90.46175943474321,
        "RAAN(deg)": 29.965761174886794,
        "Satellite Name": "Starlink Shell 1 135",
        "Satellite Number": 135,
        "Semi-Major Axis(m)": 6931778.249405717,
        "Time(s)": 660
    },
    {
        "Altitude(m)": 559897.1514375292,
        "Argument of Periapsis(deg)": 0.023354758127252868,
        "Eccentricity": 0.0,
        "Inclination(deg)": 53.0,
        "Latitude(deg)": 53.1366746328554,
        "Longitude(deg)": 19.046057326857333,
        "Mean Anomaly(deg)": 91.08859063829992,
        "RAAN(deg)": 29.96524240480932,
        "Satellite Name": "Starlink Shell 1 135",
        "Satellite Number": 135,
        "Semi-Major Axis(m)": 6931778.249405717,
        "Time(s)": 670
    },
    {
        "Altitude(m)": 559892.5270474377,
        "Argument of Periapsis(deg)": 0.023703336606764106,
        "Eccentricity": 0.0,
        "Inclination(deg)": 53.0,
        "Latitude(deg)": 53.11596554278842,
        "Longitude(deg)": 20.045936481010525,
        "Mean Anomaly(deg)": 91.71542184185662,
        "RAAN(deg)": 29.964723634731847,
        "Satellite Name": "Starlink Shell 1 135",
        "Satellite Number": 135,
        "Semi-Major Axis(m)": 6931778.249405717,
        "Time(s)": 680
    },
    {
        "Altitude(m)": 559885.8383625107,
        "Argument of Periapsis(deg)": 0.024051915086275345,
        "Eccentricity": 0.0,
        "Inclination(deg)": 53.0,
        "Latitude(deg)": 53.08616580321181,
        "Longitude(deg)": 21.044596940005704,
        "Mean Anomaly(deg)": 92.34225304541334,
        "RAAN(deg)": 29.964204864654377,
        "Satellite Name": "Starlink Shell 1 135",
        "Satellite Number": 135,
        "Semi-Major Axis(m)": 6931778.249405717,
        "Time(s)": 690
    },
    {
        "Altitude(m)": 559877.0894316019,
        "Argument of Periapsis(deg)": 0.024400493565786583,
        "Eccentricity": 0.0,
        "Inclination(deg)": 53.0,
        "Latitude(deg)": 53.047297615642,
        "Longitude(deg)": 22.04160504242585,
        "Mean Anomaly(deg)": 92.96908424897002,
        "RAAN(deg)": 29.963686094576897,
        "Satellite Name": "Starlink Shell 1 135",
        "Satellite Number": 135,
        "Semi-Major Axis(m)": 6931778.249405717,
        "Time(s)": 700
    },
    {
        "Altitude(m)": 559866.2855401593,
        "Argument of Periapsis(deg)": 0.024749072045297815,
        "Eccentricity": 0.0,
        "Inclination(deg)": 53.0,
        "Latitude(deg)": 52.999389830890465,
        "Longitude(deg)": 23.036531552934818,
        "Mean Anomaly(deg)": 93.5959154525268,
        "RAAN(deg)": 29.963167324499427,
        "Satellite Name": "Starlink Shell 1 135",
        "Satellite Number": 135,
        "Semi-Major Axis(m)": 6931778.249405717,
        "Time(s)": 710
    },
    {
        "Altitude(m)": 559853.4332076357,
        "Argument of Periapsis(deg)": 0.025097650524809053,
        "Eccentricity": 0.0,
        "Inclination(deg)": 53.0,
        "Latitude(deg)": 52.94247784411124,
        "Longitude(deg)": 24.028953407922323,
        "Mean Anomaly(deg)": 94.22274665608349,
        "RAAN(deg)": 29.962648554421957,
        "Satellite Name": "Starlink Shell 1 135",
        "Satellite Number": 135,
        "Semi-Major Axis(m)": 6931778.249405717,
        "Time(s)": 720
    },
    {
        "Altitude(m)": 559838.5401843169,
        "Argument of Periapsis(deg)": 0.02544622900432029,
        "Eccentricity": 0.0,
        "Inclination(deg)": 53.0,
        "Latitude(deg)": 52.87660346705656,
        "Longitude(deg)": 25.018455416504537,
        "Mean Anomaly(deg)": 94.8495778596402,
        "RAAN(deg)": 29.96212978434448,
        "Satellite Name": "Starlink Shell 1 135",
        "Satellite Number": 135,
        "Semi-Major Axis(m)": 6931778.249405717,
        "Time(s)": 730
    },
    {
        "Altitude(m)": 559821.6154475369,
        "Argument of Periapsis(deg)": 0.02579480748383153,
        "Eccentricity": 0.0,
        "Inclination(deg)": 53.0,
        "Latitude(deg)": 52.80181477860791,
        "Longitude(deg)": 26.004630395950052,
        "Mean Anomaly(deg)": 95.47640906319693,
        "RAAN(deg)": 29.96161101426701,
        "Satellite Name": "Starlink Shell 1 135",
        "Satellite Number": 135,
        "Semi-Major Axis(m)": 6931778.249405717,
        "Time(s)": 740
    },
    {
        "Altitude(m)": 559802.6691973096,
        "Argument of Periapsis(deg)": 0.026143385963342765,
        "Eccentricity": 0.0,
        "Inclination(deg)": 53.0,
        "Latitude(deg)": 52.71816595482454,
        "Longitude(deg)": 26.987080759925885,
        "Mean Anomaly(deg)": 96.10324026675363,
        "RAAN(deg)": 29.96109224418954,
        "Satellite Name": "Starlink Shell 1 135",
        "Satellite Number": 135,
        "Semi-Major Axis(m)": 6931778.249405717,
        "Time(s)": 750
    }
]